     2.11           N: GPS NAV DATA                         RINEX VERSION / TYPE
teqc  2019Feb25                         20221121 12:25:53UTCPGM / RUN BY / DATE
OSX ker:10.11.6|Core i5|gcc 4.3 -m64|OSX ker:10.10+|=+      COMMENT
    4.6566D-09  1.4901D-08 -5.9605D-08 -5.9605D-08          ION ALPHA
    7.7824D+04  4.9152D+04 -6.5536D+04 -3.2768D+05          ION BETA
   -7.450580596924D-09-1.865174681370D-14   319488     1543 DELTA-UTC: A0,A1,T,W
                                                            END OF HEADER
27 09  8  3 23 59 44.0 7.121730595827D-05 3.183231456205D-12 0.000000000000D+00
    1.600000000000D+01-1.340625000000D+01 4.248748405997D-09-2.934715608993D+00
   -9.257346391678D-07 2.131081733387D-02 2.272427082062D-07 5.153760839462D+03
    1.727840000000D+05 3.576278686523D-07 1.435594504376D+00 8.195638656616D-08
    9.749048464143D-01 3.781875000000D+02-1.564319665153D+00-7.904257815494D-09
    1.400058318049D-10 1.000000000000D+00 1.543000000000D+03 0.000000000000D+00
    2.000000000000D+00 0.000000000000D+00-4.190951585770D-09 1.600000000000D+01
    1.677180000000D+05 4.000000000000D+00
20 09  8  3 23 59 44.0 7.564621046185D-05-9.094947017729D-13 0.000000000000D+00
    5.000000000000D+00 2.215625000000D+01 4.786985111430D-09-1.054056881974D+00
    1.003965735435D-06 3.842367674224D-03 1.003779470921D-05 5.153800693512D+03
    1.727840000000D+05-4.284083843231D-08-6.269842944239D-01 6.891787052155D-08
    9.411124672147D-01 1.739062500000D+02 1.337874095826D+00-8.068907530958D-09
   -6.696707516177D-10 1.000000000000D+00 1.543000000000D+03 0.000000000000D+00
    2.000000000000D+00 0.000000000000D+00-6.519258022308D-09 5.000000000000D+00
    1.720380000000D+05 4.000000000000D+00
